ACS3                    
1 59588U 24077B   24273.10711304  .00052040  00000+0  58849-1 0  9995
2 59588  97.4323 317.1964 0048676 194.1925 165.7862 13.69569910 21612
